{
  "type": "FeatureCollection",
  "name": "official_crater_aoi_template",
  "features": [
    {
      "type": "Feature",
      "properties": {
        "name": "official_crater_aoi_template",
        "status": "template_only",
        "note": "Replace this polygon with the official supplied crater AOI when available."
      },
      "geometry": {
        "type": "Polygon",
        "coordinates": [
          [
            [
              24.4,
              -85.22
            ],
            [
              26.5,
              -85.22
            ],
            [
              26.5,
              -84.84
            ],
            [
              24.4,
              -84.84
            ],
            [
              24.4,
              -85.22
            ]
          ]
        ]
      }
    }
  ]
}